IRIDIUM 39              
1 25042U 97069D   25236.34577686  .00000534  00000+0  13428-3 0  9990
2 25042  86.3971 181.9296 0020169  80.1556 280.1925 14.49288095458833
IRIDIUM 38              
1 25043U 97069E   25236.42532452  .00000366  00000+0  11422-3 0  9997
2 25043  86.3983 204.4538 0001273 145.1995 214.9287 14.38164013455767
IRIDIUM 42              
1 25077U 97077A   25236.44572083  .00000348  00000+0  11231-3 0  9997
2 25077  86.3975 210.6945 0001524  95.5116 264.6255 14.36395743450999
IRIDIUM 44              
1 25078U 97077B   25236.42438236  .00000401  00000+0  12031-3 0  9996
2 25078  86.4006 192.4646 0003274 121.1954 238.9566 14.40288167453528
IRIDIUM 45              
1 25104U 97082A   25236.63514500  .00017398  00000+0  58249-3 0  9998
2 25104  86.3605  14.5910 0113359  75.1991 286.1781 15.24734090462466
IRIDIUM 24              
1 25105U 97082B   25236.58703036  .00000422  00000+0  12216-3 0  9991
2 25105  86.3870  51.2648 0010406 202.1540 157.9212 14.42151479453072
IRIDIUM 51              
1 25262U 98018A   25236.44157275  .00028703  00000+0  55822-3 0  9990
2 25262  86.3833  21.9138 0077814 347.7786  12.1578 15.44107439457540
IRIDIUM 57              
1 25273U 98019B   25236.60388699  .00000270  00000+0  86322-4 0  9996
2 25273  86.3953 116.6042 0002070  88.5924 271.5510 14.35931033434600
